STARLINK-32803          
1 63024U 25032V   26067.45477563  .00046973  00000+0  17047-2 0  9998
2 63024  43.0009 342.8063 0001659  37.5276 322.5691 15.27597366 60274
REAL                    
1 64875U 25154G   26068.72233414  .00022901  00000+0  82904-3 0  9994
2 64875  97.4133 137.2581 0001853 118.5876 241.5550 15.28408058 34830
